{"type": "FeatureCollection", "features": [ {"type": "Feature", "properties": {"norad_id": 41019, "name": "GPS BIIF-11 (PRN 10)", "group": "gnss", "lat": 56.08400742317469, "lon": 114.7358870129424, "alt_km": 20421.72352628019, "timestamp": "2025-12-03T10:52:57.693464+00:00", "meta": {"OBJECT_NAME": "GPS BIIF-11 (PRN 10)", "OBJECT_ID": "2015-062A", "EPOCH": "2025-12-01T20:11:25.977696", "MEAN_MOTION": 2.00566903, "ECCENTRICITY": 0.011051, "INCLINATION": 56.8244, "RA_OF_ASC_NODE": 38.424, "ARG_OF_PERICENTER": 229.6519, "MEAN_ANOMALY": 129.4268, "EPHEMERIS_TYPE": 0, "CLASSIFICATION_TYPE": "U", "NORAD_CAT_ID": 41019, "ELEMENT_SET_NO": 999, "REV_AT_EPOCH": 7387, "BSTAR": 0, "MEAN_MOTION_DOT": -6.5e-07, "MEAN_MOTION_DDOT": 0}, "tle": {"line1": "1 41019U 15062A   25335.84127289 -.00000065  00000+0  00000+0 0  9998", "line2": "2 41019  56.8244  38.4240 0110510 229.6519 129.4268  2.00566903 73877"}}, "geometry": {"type": "Point", "coordinates": [114.7358870129424, 56.08400742317469]}}, {"type": "Feature", "properties": {"norad_id": 41028, "name": "GSAT-15 (GAGAN/PRN 139)", "group": "gnss", "lat": -0.004144075382401793, "lon": -30.708964938228835, "alt_km": 35787.30208547556, "timestamp": "2025-12-03T10:52:57.693477+00:00", "meta": {"OBJECT_NAME": "GSAT-15 (GAGAN/PRN 139)", "OBJECT_ID": "2015-065A", "EPOCH": "2025-12-03T02:12:56.803104", "MEAN_MOTION": 1.0027262, "ECCENTRICITY": 0.0003008, "INCLINATION": 0.0248, "RA_OF_ASC_NODE": 74.6482, "ARG_OF_PERICENTER": 158.0746, "MEAN_ANOMALY": 326.1986, "EPHEMERIS_TYPE": 0, "CLASSIFICATION_TYPE": "U", "NORAD_CAT_ID": 41028, "ELEMENT_SET_NO": 999, "REV_AT_EPOCH": 3683, "BSTAR": 0, "MEAN_MOTION_DOT": -2.39e-06, "MEAN_MOTION_DDOT": 0}, "tle": {"line1": "1 41028U 15065A   25337.09232411 -.00000239  00000+0  00000+0 0  9997", "line2": "2 41028   0.0248  74.6482 0003008 158.0746 326.1986  1.00272620 36839"}}, "geometry": {"type": "Point", "coordinates": [-30.708964938228835, -0.004144075382401793]}}, {"type": "Feature", "properties": {"norad_id": 41174, "name": "GSAT0209 (GALILEO 12)", "group": "gnss", "lat": -20.27329001293317, "lon": -58.79247835028035, "alt_km": 23231.11497064246, "timestamp": "2025-12-03T10:52:57.693490+00:00", "meta": {"OBJECT_NAME": "GSAT0209 (GALILEO 12)", "OBJECT_ID": "2015-079A", "EPOCH": "2025-12-01T22:43:10.411392", "MEAN_MOTION": 1.70474306, "ECCENTRICITY": 0.0002352, "INCLINATION": 55.7062, "RA_OF_ASC_NODE": 106.6773, "ARG_OF_PERICENTER": 357.4206, "MEAN_ANOMALY": 2.5431, "EPHEMERIS_TYPE": 0, "CLASSIFICATION_TYPE": "U", "NORAD_CAT_ID": 41174, "ELEMENT_SET_NO": 999, "REV_AT_EPOCH": 6141, "BSTAR": 0, "MEAN_MOTION_DOT": 3.5e-07, "MEAN_MOTION_DDOT": 0}, "tle": {"line1": "1 41174U 15079A   25335.94664828  .00000035  00000+0  00000+0 0  9990", "line2": "2 41174  55.7062 106.6773 0002352 357.4206   2.5431  1.70474306 61412"}}, "geometry": {"type": "Point", "coordinates": [-58.79247835028035, -20.27329001293317]}}, {"type": "Feature", "properties": {"norad_id": 41175, "name": "GSAT0208 (GALILEO 11)", "group": "gnss", "lat": 50.78352078088492, "lon": 163.31503765568263, "alt_km": 23213.383442727372, "timestamp": "2025-12-03T10:52:57.693501+00:00", "meta": {"OBJECT_NAME": "GSAT0208 (GALILEO 11)", "OBJECT_ID": "2015-079B", "EPOCH": "2025-12-02T18:04:51.779712", "MEAN_MOTION": 1.70474153, "ECCENTRICITY": 0.0001892, "INCLINATION": 55.7052, "RA_OF_ASC_NODE": 106.6523, "ARG_OF_PERICENTER": 10.0407, "MEAN_ANOMALY": 349.9226, "EPHEMERIS_TYPE": 0, "CLASSIFICATION_TYPE": "U", "NORAD_CAT_ID": 41175, "ELEMENT_SET_NO": 999, "REV_AT_EPOCH": 6184, "BSTAR": 0, "MEAN_MOTION_DOT": 2.7e-07, "MEAN_MOTION_DDOT": 0}, "tle": {"line1": "1 41175U 15079B   25336.75337708  .00000027  00000+0  00000+0 0  9996", "line2": "2 41175  55.7052 106.6523 0001892  10.0407 349.9226  1.70474153 61845"}}, "geometry": {"type": "Point", "coordinates": [163.31503765568263, 50.78352078088492]}}, {"type": "Feature", "properties": {"norad_id": 41241, "name": "IRNSS-1E", "group": "gnss", "lat": -31.548950901799444, "lon": -9.527391210030546, "alt_km": 35802.27882978699, "timestamp": "2025-12-03T10:52:57.693513+00:00", "meta": {"OBJECT_NAME": "IRNSS-1E", "OBJECT_ID": "2016-003A", "EPOCH": "2025-12-02T15:46:14.293632", "MEAN_MOTION": 1.00278203, "ECCENTRICITY": 0.00219463, "INCLINATION": 32.8036, "RA_OF_ASC_NODE": 62.6001, "ARG_OF_PERICENTER": 186.4596, "MEAN_ANOMALY": 170.9534, "EPHEMERIS_TYPE": 0, "CLASSIFICATION_TYPE": "U", "NORAD_CAT_ID": 41241, "ELEMENT_SET_NO": 999, "REV_AT_EPOCH": 3610, "BSTAR": 0, "MEAN_MOTION_DOT": -3.03e-06, "MEAN_MOTION_DDOT": 0}, "tle": {"line1": "1 41241U 16003A   25336.65710988 -.00000303  00000+0  00000+0 0  9990", "line2": "2 41241  32.8036  62.6001 0021946 186.4596 170.9534  1.00278203 36104"}}, "geometry": {"type": "Point", "coordinates": [-9.527391210030546, -31.548950901799444]}}, {"type": "Feature", "properties": {"norad_id": 41328, "name": "GPS BIIF-12 (PRN 32)", "group": "gnss", "lat": 19.86991901590033, "lon": 111.64417855240511, "alt_km": 20368.42535136694, "timestamp": "2025-12-03T10:52:57.693528+00:00", "meta": {"OBJECT_NAME": "GPS BIIF-12 (PRN 32)", "OBJECT_ID": "2016-007A", "EPOCH": "2025-12-01T22:09:54.040896", "MEAN_MOTION": 2.0056114, "ECCENTRICITY": 0.0091649, "INCLINATION": 55.3999, "RA_OF_ASC_NODE": 97.2864, "ARG_OF_PERICENTER": 243.3101, "MEAN_ANOMALY": 115.7281, "EPHEMERIS_TYPE": 0, "CLASSIFICATION_TYPE": "U", "NORAD_CAT_ID": 41328, "ELEMENT_SET_NO": 999, "REV_AT_EPOCH": 7188, "BSTAR": 0, "MEAN_MOTION_DOT": 1.1e-07, "MEAN_MOTION_DDOT": 0}, "tle": {"line1": "1 41328U 16007A   25335.92354214  .00000011  00000+0  00000+0 0  9990", "line2": "2 41328  55.3999  97.2864 0091649 243.3101 115.7281  2.00561140 71887"}}, "geometry": {"type": "Point", "coordinates": [111.64417855240511, 19.86991901590033]}}, {"type": "Feature", "properties": {"norad_id": 41330, "name": "COSMOS 2514 (751)", "group": "gnss", "lat": -55.190742138638136, "lon": -178.45182545839555, "alt_km": 19107.080969526152, "timestamp": "2025-12-03T10:52:57.693542+00:00", "meta": {"OBJECT_NAME": "COSMOS 2514 (751)", "OBJECT_ID": "2016-008A", "EPOCH": "2025-12-02T04:41:58.161984", "MEAN_MOTION": 2.13102491, "ECCENTRICITY": 0.00124931, "INCLINATION": 65.1398, "RA_OF_ASC_NODE": 319.7653, "ARG_OF_PERICENTER": 219.8518, "MEAN_ANOMALY": 140.0636, "EPHEMERIS_TYPE": 0, "CLASSIFICATION_TYPE": "U", "NORAD_CAT_ID": 41330, "ELEMENT_SET_NO": 999, "REV_AT_EPOCH": 7642, "BSTAR": 0, "MEAN_MOTION_DOT": -3.3e-07, "MEAN_MOTION_DDOT": 0}, "tle": {"line1": "1 41330U 16008A   25336.19581206 -.00000033  00000+0  00000+0 0  9992", "line2": "2 41330  65.1398 319.7653 0012493 219.8518 140.0636  2.13102491 76424"}}, "geometry": {"type": "Point", "coordinates": [-178.45182545839555, -55.190742138638136]}}, {"type": "Feature", "properties": {"norad_id": 41384, "name": "IRNSS-1F", "group": "gnss", "lat": 1.1017401026890508, "lon": -91.84678704954572, "alt_km": 35694.73842650435, "timestamp": "2025-12-03T10:52:57.693555+00:00", "meta": {"OBJECT_NAME": "IRNSS-1F", "OBJECT_ID": "2016-015A", "EPOCH": "2025-12-03T01:55:20.988192", "MEAN_MOTION": 1.00267525, "ECCENTRICITY": 0.0022402, "INCLINATION": 4.8561, "RA_OF_ASC_NODE": 101.5395, "ARG_OF_PERICENTER": 179.5147, "MEAN_ANOMALY": 212.3606, "EPHEMERIS_TYPE": 0, "CLASSIFICATION_TYPE": "U", "NORAD_CAT_ID": 41384, "ELEMENT_SET_NO": 999, "REV_AT_EPOCH": 3570, "BSTAR": 0, "MEAN_MOTION_DOT": 1.77e-06, "MEAN_MOTION_DDOT": 0}, "tle": {"line1": "1 41384U 16015A   25337.08010403  .00000177  00000+0  00000+0 0  9992", "line2": "2 41384   4.8561 101.5395 0022402 179.5147 212.3606  1.00267525 35707"}}, "geometry": {"type": "Point", "coordinates": [-91.84678704954572, 1.1017401026890508]}}, {"type": "Feature", "properties": {"norad_id": 41434, "name": "BEIDOU-2 IGSO-6 (C13)", "group": "gnss", "lat": -55.35567218041812, "lon": -16.70461108794267, "alt_km": 35659.607095667554, "timestamp": "2025-12-03T10:52:57.693567+00:00", "meta": {"OBJECT_NAME": "BEIDOU-2 IGSO-6 (C13)", "OBJECT_ID": "2016-021A", "EPOCH": "2025-12-01T15:57:35.287200", "MEAN_MOTION": 1.00256562, "ECCENTRICITY": 0.00591323, "INCLINATION": 59.9483, "RA_OF_ASC_NODE": 40.0119, "ARG_OF_PERICENTER": 231.2834, "MEAN_ANOMALY": 130.8807, "EPHEMERIS_TYPE": 0, "CLASSIFICATION_TYPE": "U", "NORAD_CAT_ID": 41434, "ELEMENT_SET_NO": 999, "REV_AT_EPOCH": 3550, "BSTAR": 0, "MEAN_MOTION_DOT": -1.55e-06, "MEAN_MOTION_DDOT": 0}, "tle": {"line1": "1 41434U 16021A   25335.66499175 -.00000155  00000+0  00000+0 0  9991", "line2": "2 41434  59.9483  40.0119 0059132 231.2834 130.8807  1.00256562 35501"}}, "geometry": {"type": "Point", "coordinates": [-16.70461108794267, -55.35567218041812]}}, {"type": "Feature", "properties": {"norad_id": 41469, "name": "IRNSS-1G", "group": "gnss", "lat": -4.660298618434174, "lon": 5.198446891768754, "alt_km": 35790.557091684044, "timestamp": "2025-12-03T10:52:57.693579+00:00", "meta": {"OBJECT_NAME": "IRNSS-1G", "OBJECT_ID": "2016-027A", "EPOCH": "2025-12-02T20:10:51.611232", "MEAN_MOTION": 1.00266361, "ECCENTRICITY": 0.0001391, "INCLINATION": 4.7124, "RA_OF_ASC_NODE": 102.3436, "ARG_OF_PERICENTER": 15.7856, "MEAN_ANOMALY": 26.0074, "EPHEMERIS_TYPE": 0, "CLASSIFICATION_TYPE": "U", "NORAD_CAT_ID": 41469, "ELEMENT_SET_NO": 999, "REV_AT_EPOCH": 3521, "BSTAR": 0, "MEAN_MOTION_DOT": -3.15e-06, "MEAN_MOTION_DDOT": 0}, "tle": {"line1": "1 41469U 16027A   25336.84087513 -.00000315  00000+0  00000+0 0  9993", "line2": "2 41469   4.7124 102.3436 0001391  15.7856  26.0074  1.00266361 35214"}}, "geometry": {"type": "Point", "coordinates": [5.198446891768754, -4.660298618434174]}}]}